satname,norad_id,inclination_deg,eccentricity,mean_motion_rev_per_day,perigee_km,apogee_km,l1,l2
STARLINK-1008,44714,53.1566,0.0003321,15.33588617,462.8432603866113,467.3885489658978,1 44714U 19074B   26094.27775507  .00053044  00000+0  16106-2 0  9993,2 44714  53.1566  59.5424 0003321 106.2763 253.8605 15.33588617352793
STARLINK-1012,44718,53.158,0.0003003,15.32883185,465.15959188210127,469.2709104441492,1 44718U 19074F   26094.59750961  .00080883  00000+0  24958-2 0  9994,2 44718  53.1580  58.2605 0003003 107.4588 252.6742 15.32883185352836
STARLINK-1017,44723,53.0514,0.000341,15.26534074,483.8420297867933,488.5234958650399,1 44723U 19074L   26094.16360358  .00073204  00000+0  27503-2 0  9998,2 44723  53.0514  53.7278 0003410 114.7108 245.4245 15.26534074352858
STARLINK-1019,44724,53.0401,0.0002047,15.90562061,299.34182256756503,302.0761421127345,1 44724U 19074M   26094.25002315  .00341549  54491-4  10928-2 0  9996,2 44724  53.0401   7.4186 0002047 222.2555  14.6419 15.90562061  5643
STARLINK-1020,44725,53.1585,0.0002602,15.31946939,468.2220955146922,471.7858680816198,1 44725U 19074N   26094.26307860  .00064199  00000+0  20469-2 0  9997,2 44725  53.1585  84.9669 0002602  98.0336 262.0961 15.31946939352424
STARLINK-1031,44736,53.0309,0.0004423,16.14116248,232.65009906296928,238.50058900250133,1 44736U 19074Z   26094.69615447  .01085947  78516-3  85784-3 0  9997,2 44736  53.0309 345.7477 0004423 219.7432 140.3280 16.14116248353850
STARLINK-1036,44741,53.0463,0.0005208,15.61466594,379.8985227172716,386.9413604276142,1 44741U 19074AE  26094.25002315  .00221410  00000+0  24783-2 0  9995,2 44741  53.0463  64.3249 0005208  58.1043 223.6944 15.61466594  5661
STARLINK-1039,44744,53.061,0.0001293,15.23957097,493.03029979499934,494.80741343952013,1 44744U 19074AH  26094.27749771  .00077304  00000+0  31352-2 0  9995,2 44744  53.0610  97.2950 0001293   8.0259 352.0758 15.23957097352256
STARLINK-1042,44747,53.0442,0.0001282,15.51266846,412.1555769688157,413.8968312143452,1 44747U 19074AL  26094.05004299  .00042165  00000+0  71112-3 0  9999,2 44747  53.0442 332.9933 0001282 165.0834 195.0212 15.51266846354004
STARLINK-1043,44748,53.0516,0.0002711,15.55495706,398.87430991162546,402.549801869729,1 44748U 19074AM  26094.63129817  .00042074  00000+0  60900-3 0  9990,2 44748  53.0516  69.1702 0002711 102.5774 257.5540 15.55495706352680
STARLINK-1046,44751,53.0524,0.0001843,15.46556175,425.5552428363044,428.0635460773001,1 44751U 19074AQ  26094.35666675  .00107377  00000+0  21041-2 0  9991,2 44751  53.0524  88.6236 0001843 303.3736  56.7094 15.46556175352383
STARLINK-1047,44752,53.0709,0.0001892,15.33200527,464.9756888477241,467.5656127027769,1 44752U 19074AR  26094.51132751  .00014890  00000+0  46822-3 0  9995,2 44752  53.0709  25.3265 0001892 347.8089  12.2866 15.33200527353307
STARLINK-1048,44753,53.0498,0.0002867,15.58337364,390.5275093405471,394.4097746156567,1 44753U 19074AS  26094.28121981  .00082158  00000+0  10586-2 0  9992,2 44753  53.0498  44.9703 0002867 111.9161 248.2155 15.58337364352983
STARLINK-1063,44768,53.1584,0.0003342,15.32581969,465.82413597314826,470.4001689066381,1 44768U 19074BH  26094.27441368  .00080768  00000+0  25159-2 0  9998,2 44768  53.1584 100.3830 0003342  76.8414 283.2961 15.32581969352239
STARLINK-1067,44771,53.0475,0.0006667,15.62641344,375.5250802955452,384.5364211743763,1 44771U 19074BL  26094.25002315  .00198975  00000+0  21338-2 0  9990,2 44771  53.0475  79.7304 0006667  68.3757 225.7959 15.62641344  5886
STARLINK-1068,44772,53.0468,0.0004406,15.6740812,363.35030141376046,369.29351860526094,1 44772U 19074BM  26094.22019729  .00094951  00000+0  85632-3 0  9992,2 44772  53.0468  54.4664 0004406  41.8452 318.2899 15.67408120352845
STARLINK-1114,44927,53.0467,0.0004355,15.5506905,398.9991882458853,404.9046456925662,1 44927U 20001P   26094.30007259  .00147956  00000+0  21287-2 0  9999,2 44927  53.0467 206.0055 0004355 242.6659 117.3908 15.55069050344075
STARLINK-1123,44930,53.1488,0.0002286,15.3032843,473.2650387792737,476.39821603572545,1 44930U 20001S   26093.60304967  .00041251  00000+0  13916-2 0  9992,2 44930  53.1488 229.5308 0002286  24.2809 335.8299 15.30328430343685
STARLINK-1094,44941,53.1583,0.0001581,15.32149543,468.317662958304,470.48285423947345,1 44941U 20001AD  26094.60472685  .00073058  00000+0  23104-2 0  9998,2 44941  53.1583 199.0921 0001581  24.5941 335.5136 15.32149543344206
STARLINK-1122,44949,53.159,0.0001224,15.30184397,474.4228015650506,476.1005135564219,1 44949U 20001AM  26094.57446401 -.00002170  00000+0 -61177-4 0  9992,2 44949  53.1590 199.3744 0001224  85.3031 274.8110 15.30184397344196
STARLINK-1080,44961,53.0489,0.0001607,15.51837107,410.27130882404344,412.4534539252172,1 44961U 20001AZ  26094.22420955  .00143136  00000+0  23173-2 0  9992,2 44961  53.0489 165.7807 0001607 249.1697 110.9140 15.51837107344635
STARLINK-1090,44968,53.1526,0.0002362,15.30897049,471.51632613962556,474.7528668418081,1 44968U 20001BG  26094.28600084  .00091114  00000+0  29857-2 0  9991,2 44968  53.1526 187.6091 0002362  26.8566 333.2557 15.30897049344334
STARLINK-1132,45044,53.1539,0.0004649,15.46864954,422.74058163191967,429.0669787493416,1 45044U 20006A   26094.53469118  .00105951  00000+0  20543-2 0  9999,2 45044  53.1539 131.1946 0004649 344.9446  15.1423 15.46864954340923
STARLINK-1131,45047,53.1588,0.0001632,15.31105188,471.39564665227954,473.63169903189555,1 45047U 20006D   26094.59406554  .00074362  00000+0  24288-2 0  9994,2 45047  53.1588 160.6360 0001632  68.4779 291.6396 15.31105188340519
STARLINK-1134,45048,53.0298,0.0005042,15.46905407,422.35462083594575,429.2156959404638,1 45048U 20006E   26094.43064175  .00113485  00000+0  21943-2 0  9992,2 45048  53.0298 115.5993 0005042 285.0333  75.0115 15.46905407341129
STARLINK-1156,45054,53.1595,0.0001291,15.30188084,474.3658763328922,476.1354210237823,1 45054U 20006L   26094.16507686 -.00001352  00000+0 -33552-4 0  9990,2 45054  53.1595 162.6632 0001291  77.1384 282.9761 15.30188084340445
STARLINK-1159,45057,53.0389,0.0003675,15.91874854,294.5833949253938,299.48964746347247,1 45057U 20006P   26094.25002315  .00308653  46979-4  92343-3 0  9996,2 45057  53.0389 105.2994 0003675  51.0726 177.5982 15.91874854  6000
STARLINK-1166,45060,53.0492,0.0002684,15.49552772,416.2093249848367,419.85750926474793,1 45060U 20006S   26094.21915234  .00109688  00000+0  19357-2 0  9999,2 45060  53.0492 150.6780 0002684 339.2674  20.8224 15.49552772340610
STARLINK-1169,45061,53.1576,0.0002771,15.32009003,467.9214595735357,471.71659680435823,1 45061U 20006T   26094.18840830  .00035968  00000+0  11540-2 0  9990,2 45061  53.1576 162.4489 0002771  44.3714 315.7510 15.32009003340450
STARLINK-1171,45062,53.0426,0.0004584,15.66818493,364.9214235499285,371.1062946575548,1 45062U 20006U   26094.50798098  .00066184  00000+0  61498-3 0  9997,2 45062  53.0426 122.7141 0004584  48.7036 311.4373 15.66818493341030
STARLINK-1133,45064,53.1584,0.0001127,15.30183899,474.4907663283566,476.03552272093293,1 45064U 20006W   26094.53009415 -.00002175  00000+0 -61375-4 0  9997,2 45064  53.1584 137.7736 0001127  79.7548 280.3580 15.30183899340833
STARLINK-1167,45071,53.1564,0.0003671,15.31594541,468.54004289922796,473.5687192111982,1 45071U 20006AD  26094.49182229  .00024740  00000+0  80891-3 0  9998,2 45071  53.1564 137.9946 0003671  41.6294 318.4986 15.31594541340829
STARLINK-1168,45072,53.1595,0.0001229,15.3021004,474.34281866785204,476.0273652380547,1 45072U 20006AE  26094.51114861  .00004144  00000+0  15191-3 0  9996,2 45072  53.1595 138.0698 0001229  89.1896 270.9246 15.30210040340821
STARLINK-1172,45074,53.1552,0.0002887,15.32601221,466.07832328502354,470.0313144412348,1 45074U 20006AG  26094.55509792  .00060994  00000+0  19067-2 0  9993,2 45074  53.1552 137.4933 0002887  47.0802 313.0442 15.32601221340837
STARLINK-1153,45080,53.1577,0.0003344,15.31613354,468.70794377681887,473.28864546186105,1 45080U 20006AN  26094.54115096  .00058794  00000+0  18964-2 0  9999,2 45080  53.1577 137.6793 0003344  46.5638 313.5642 15.31613354340833
STARLINK-1151,45081,53.0503,0.0004494,15.68917724,358.9658798138107,365.02391036111476,1 45081U 20006AP  26094.46578654  .00079889  00000+0  67943-3 0  9994,2 45081  53.0503 112.9129 0004494  57.3157 302.8292 15.68917724341161
STARLINK-1185,45087,53.1602,0.0001621,15.391182,447.60895931321284,449.8222249235787,1 45087U 20006AV  26094.49557618  .00048299  00000+0  12298-2 0  9993,2 45087  53.1602 121.6486 0001621  73.6230 286.4953 15.39118200341052
STARLINK-1183,45088,53.159,0.0001411,15.30194923,474.2632183521655,476.19723858403995,1 45088U 20006AW  26094.48683142 -.00000320  00000+0  13341-5 0  9992,2 45088  53.1590 122.7553 0001411  91.3855 268.7307 15.30194923341034
STARLINK-1152,45096,53.0373,0.0003417,15.41823206,438.3984698025779,443.05848246896767,1 45096U 20006BE  26094.23068457  .00108531  00000+0  24957-2 0  9994,2 45096  53.0373  85.7091 0003417 357.1263   2.9721 15.41823206341527
STARLINK-1184,45098,53.0512,0.0002214,15.1158498,529.8360189570676,532.8955467893238,1 45098U 20006BG  26094.46428487  .00025185  00000+0  14789-2 0  9999,2 45098  53.0512 128.9007 0002214 210.4748 149.6114 15.11584980340933
STARLINK-1193,45100,53.0493,0.0006276,15.59748477,384.13775444163,392.6310921321392,1 45100U 20006BJ  26094.43668707  .00081608  00000+0  99636-3 0  9998,2 45100  53.0493 105.3805 0006276  53.6671 306.4919 15.59748477341262
STARLINK-1143,45179,53.0451,0.0004586,15.70010703,355.77680112658436,361.9559806367006,1 45179U 20012B   26094.25002315  .00097136  00000+0  78697-3 0  9995,2 45179  53.0451 204.2588 0004586 244.0303 282.3211 15.70010703  5945
STARLINK-1202,45183,53.1572,0.0001552,15.30212125,474.1152319714274,476.24250121641853,1 45183U 20012F   26093.90000487  .00010575  00000+0  36852-3 0  9998,2 45183  53.1572 282.1504 0001552  84.8052 275.3126 15.30212125338819
